[
    {
        "Altitude(m)": 607897.6108729929,
        "Argument of Periapsis(deg)": 0.0,
        "Eccentricity": 0.0,
        "Inclination(deg)": 60.0,
        "Latitude(deg)": -14.292913307988066,
        "Longitude(deg)": 141.6187386372334,
        "Mean Anomaly(deg)": -16.363600000000087,
        "RAAN(deg)": 250.00000000000003,
        "Satellite Name": "Test1 1121",
        "Satellite Number": 1121,
        "Semi-Major Axis(m)": 6980739.136638005,
        "Time(s)": 0
    },
    {
        "Altitude(m)": 607750.8123443795,
        "Argument of Periapsis(deg)": 0.00010418945913296404,
        "Eccentricity": 0.0,
        "Inclination(deg)": 60.0,
        "Latitude(deg)": -13.758755035086896,
        "Longitude(deg)": 141.90580817883827,
        "Mean Anomaly(deg)": -15.743493854538235,
        "RAAN(deg)": 249.99957995086027,
        "Satellite Name": "Test1 1121",
        "Satellite Number": 1121,
        "Semi-Major Axis(m)": 6980739.136638005,
        "Time(s)": 10
    },
    {
        "Altitude(m)": 607606.5380971343,
        "Argument of Periapsis(deg)": 0.0002083789182659281,
        "Eccentricity": 0.0,
        "Inclination(deg)": 60.0,
        "Latitude(deg)": -13.224122014007168,
        "Longitude(deg)": 142.19140132077308,
        "Mean Anomaly(deg)": -15.123387709076383,
        "RAAN(deg)": 249.99915990172053,
        "Satellite Name": "Test1 1121",
        "Satellite Number": 1121,
        "Semi-Major Axis(m)": 6980739.136638005,
        "Time(s)": 20
    },
    {
        "Altitude(m)": 607464.8325033152,
        "Argument of Periapsis(deg)": 0.00031256837739889213,
        "Eccentricity": 0.0,
        "Inclination(deg)": 60.0,
        "Latitude(deg)": -12.689034549317215,
        "Longitude(deg)": 142.4755827423905,
        "Mean Anomaly(deg)": -14.503281563614578,
        "RAAN(deg)": 249.99873985258083,
        "Satellite Name": "Test1 1121",
        "Satellite Number": 1121,
        "Semi-Major Axis(m)": 6980739.136638005,
        "Time(s)": 30
    },
    {
        "Altitude(m)": 607325.7386578935,
        "Argument of Periapsis(deg)": 0.0004167578365318562,
        "Eccentricity": 0.0,
        "Inclination(deg)": 60.0,
        "Latitude(deg)": -12.153512673039822,
        "Longitude(deg)": 142.75841678039376,
        "Mean Anomaly(deg)": -13.883175418152726,
        "RAAN(deg)": 249.99831980344106,
        "Satellite Name": "Test1 1121",
        "Satellite Number": 1121,
        "Semi-Major Axis(m)": 6980739.136638005,
        "Time(s)": 40
    },
    {
        "Altitude(m)": 607189.2983604334,
        "Argument of Periapsis(deg)": 0.0005209472956648203,
        "Eccentricity": 0.0,
        "Inclination(deg)": 60.0,
        "Latitude(deg)": -11.617576158592609,
        "Longitude(deg)": 143.039966460371,
        "Mean Anomaly(deg)": -13.263069272690874,
        "RAAN(deg)": 249.99789975430133,
        "Satellite Name": "Test1 1121",
        "Satellite Number": 1121,
        "Semi-Major Axis(m)": 6980739.136638005,
        "Time(s)": 50
    },
    {
        "Altitude(m)": 607055.5520974165,
        "Argument of Periapsis(deg)": 0.0006251367547977843,
        "Eccentricity": 0.0,
        "Inclination(deg)": 60.0,
        "Latitude(deg)": -11.081244534374475,
        "Longitude(deg)": 143.32029404052494,
        "Mean Anomaly(deg)": -12.642963127229018,
        "RAAN(deg)": 249.99747970516157,
        "Satellite Name": "Test1 1121",
        "Satellite Number": 1121,
        "Semi-Major Axis(m)": 6980739.136638005,
        "Time(s)": 60
    },
    {
        "Altitude(m)": 606924.5390251575,
        "Argument of Periapsis(deg)": 0.0007293262139307483,
        "Eccentricity": 0.0,
        "Inclination(deg)": 60.0,
        "Latitude(deg)": -10.544537097016,
        "Longitude(deg)": 143.59946155475612,
        "Mean Anomaly(deg)": -12.02285698176722,
        "RAAN(deg)": 249.99705965602186,
        "Satellite Name": "Test1 1121",
        "Satellite Number": 1121,
        "Semi-Major Axis(m)": 6980739.136638005,
        "Time(s)": 70
    },
    {
        "Altitude(m)": 606796.2969534353,
        "Argument of Periapsis(deg)": 0.0008335156730637124,
        "Eccentricity": 0.0,
        "Inclination(deg)": 60.0,
        "Latitude(deg)": -10.00747292430923,
        "Longitude(deg)": 143.8775298422544,
        "Mean Anomaly(deg)": -11.402750836305364,
        "RAAN(deg)": 249.9966396068821,
        "Satellite Name": "Test1 1121",
        "Satellite Number": 1121,
        "Semi-Major Axis(m)": 6980739.136638005,
        "Time(s)": 80
    },
    {
        "Altitude(m)": 606670.8623297111,
        "Argument of Periapsis(deg)": 0.0009377051321966765,
        "Eccentricity": 0.0,
        "Inclination(deg)": 60.0,
        "Latitude(deg)": -9.47007088783988,
        "Longitude(deg)": 144.1545590893731,
        "Mean Anomaly(deg)": -10.782644690843513,
        "RAAN(deg)": 249.9962195577423,
        "Satellite Name": "Test1 1121",
        "Satellite Number": 1121,
        "Semi-Major Axis(m)": 6980739.136638005,
        "Time(s)": 90
    },
    {
        "Altitude(m)": 606548.2702240581,
        "Argument of Periapsis(deg)": 0.0010418945913296407,
        "Eccentricity": 0.0,
        "Inclination(deg)": 60.0,
        "Latitude(deg)": -8.932349665336364,
        "Longitude(deg)": 144.43060937094396,
        "Mean Anomaly(deg)": -10.16253854538166,
        "RAAN(deg)": 249.99579950860257,
        "Satellite Name": "Test1 1121",
        "Satellite Number": 1121,
        "Semi-Major Axis(m)": 6980739.136638005,
        "Time(s)": 100
    },
    {
        "Altitude(m)": 606428.5543147335,
        "Argument of Periapsis(deg)": 0.0011460840504626045,
        "Eccentricity": 0.0,
        "Inclination(deg)": 60.0,
        "Latitude(deg)": -8.394327752751247,
        "Longitude(deg)": 144.7057396781865,
        "Mean Anomaly(deg)": -9.542432399919857,
        "RAAN(deg)": 249.9953794594629,
        "Satellite Name": "Test1 1121",
        "Satellite Number": 1121,
        "Semi-Major Axis(m)": 6980739.136638005,
        "Time(s)": 110
    },
    {
        "Altitude(m)": 606311.7468744601,
        "Argument of Periapsis(deg)": 0.0012502735095955685,
        "Eccentricity": 0.0,
        "Inclination(deg)": 60.0,
        "Latitude(deg)": -7.856023476095573,
        "Longitude(deg)": 144.98000845898972,
        "Mean Anomaly(deg)": -8.922326254458003,
        "RAAN(deg)": 249.9949594103231,
        "Satellite Name": "Test1 1121",
        "Satellite Number": 1121,
        "Semi-Major Axis(m)": 6980739.136638005,
        "Time(s)": 120
    },
    {
        "Altitude(m)": 606197.8787573626,
        "Argument of Periapsis(deg)": 0.0013544629687285324,
        "Eccentricity": 0.0,
        "Inclination(deg)": 60.0,
        "Latitude(deg)": -7.317455003040862,
        "Longitude(deg)": 145.25347415772083,
        "Mean Anomaly(deg)": -8.302220108996252,
        "RAAN(deg)": 249.99453936118334,
        "Satellite Name": "Test1 1121",
        "Satellite Number": 1121,
        "Semi-Major Axis(m)": 6980739.136638005,
        "Time(s)": 130
    },
    {
        "Altitude(m)": 606086.9793866216,
        "Argument of Periapsis(deg)": 0.0014586524278614966,
        "Eccentricity": 0.0,
        "Inclination(deg)": 60.0,
        "Latitude(deg)": -6.7786403543013325,
        "Longitude(deg)": 145.52619424171772,
        "Mean Anomaly(deg)": -7.6821139635344,
        "RAAN(deg)": 249.9941193120436,
        "Satellite Name": "Test1 1121",
        "Satellite Number": 1121,
        "Semi-Major Axis(m)": 6980739.136638005,
        "Time(s)": 140
    },
    {
        "Altitude(m)": 605979.0767428242,
        "Argument of Periapsis(deg)": 0.0015628418869944607,
        "Eccentricity": 0.0,
        "Inclination(deg)": 60.0,
        "Latitude(deg)": -6.239597414818027,
        "Longitude(deg)": 145.79822574024067,
        "Mean Anomaly(deg)": -7.062007818072598,
        "RAAN(deg)": 249.99369926290387,
        "Satellite Name": "Test1 1121",
        "Satellite Number": 1121,
        "Semi-Major Axis(m)": 6980739.136638005,
        "Time(s)": 150
    },
    {
        "Altitude(m)": 605874.1973530194,
        "Argument of Periapsis(deg)": 0.0016670313461274247,
        "Eccentricity": 0.0,
        "Inclination(deg)": 60.0,
        "Latitude(deg)": -5.700343944755845,
        "Longitude(deg)": 146.06962578304,
        "Mean Anomaly(deg)": -6.4419016726107445,
        "RAAN(deg)": 249.99327921376414,
        "Satellite Name": "Test1 1121",
        "Satellite Number": 1121,
        "Semi-Major Axis(m)": 6980739.136638005,
        "Time(s)": 160
    },
    {
        "Altitude(m)": 605772.3662804706,
        "Argument of Periapsis(deg)": 0.0017712208052603888,
        "Eccentricity": 0.0,
        "Inclination(deg)": 60.0,
        "Latitude(deg)": -5.160897590328394,
        "Longitude(deg)": 146.34045062569504,
        "Mean Anomaly(deg)": -5.821795527148994,
        "RAAN(deg)": 249.99285916462438,
        "Satellite Name": "Test1 1121",
        "Satellite Number": 1121,
        "Semi-Major Axis(m)": 6980739.136638005,
        "Time(s)": 170
    },
    {
        "Altitude(m)": 605673.6071151716,
        "Argument of Periapsis(deg)": 0.001875410264393353,
        "Eccentricity": 0.0,
        "Inclination(deg)": 60.0,
        "Latitude(deg)": -4.621275894467698,
        "Longitude(deg)": 146.61075618749996,
        "Mean Anomaly(deg)": -5.20168938168714,
        "RAAN(deg)": 249.99243911548464,
        "Satellite Name": "Test1 1121",
        "Satellite Number": 1121,
        "Semi-Major Axis(m)": 6980739.136638005,
        "Time(s)": 180
    },
    {
        "Altitude(m)": 605577.9419650453,
        "Argument of Periapsis(deg)": 0.0019795997235263173,
        "Eccentricity": 0.0,
        "Inclination(deg)": 60.0,
        "Latitude(deg)": -4.081496307353321,
        "Longitude(deg)": 146.88059858905325,
        "Mean Anomaly(deg)": -4.581583236225338,
        "RAAN(deg)": 249.9920190663449,
        "Satellite Name": "Test1 1121",
        "Satellite Number": 1121,
        "Semi-Major Axis(m)": 6980739.136638005,
        "Time(s)": 190
    }
]